CUTE-1.7+APD II (CO-65) 
1 32785U 08021C   26094.25070638  .00009772  00000+0  62586-3 0  9992
2 32785  97.8239  74.1938 0007116 283.3320  76.7114 15.08746428974048
SEEDS II (CO-66)        
1 32791U 08021J   26094.23743945  .00032687  00000+0  11161-2 0  9998
2 32791  97.7528  88.7558 0002917 161.1611 198.9737 15.30245025975977
YUBILEINY (RS30)        
1 32953U 08025A   26094.30000257  .00000054  00000+0  31845-3 0  9997
2 32953  82.5054  41.3896 0020393 110.5957 249.7313 12.43177021810516
KKS-1 (KISEKI)          
1 33499U 09002H   26094.24127065  .00003091  00000+0  38759-3 0  9994
2 33499  98.1190  15.5270 0008187 160.1323 200.0211 14.82931099925231
SWISSCUBE               
1 35932U 09051B   26094.27417133  .00002034  00000+0  41221-3 0  9997
2 35932  98.4078   0.8689 0008097  83.1361 277.0761 14.62335375878357
BEESAT-1                
1 35933U 09051C   26094.17725522  .00001677  00000+0  34725-3 0  9994
2 35933  98.4009   0.5587 0006535  94.9229 265.2718 14.61596567878378
ITUPSAT1                
1 35935U 09051E   26094.24063622  .00001541  00000+0  32888-3 0  9998
2 35935  98.4094 359.8921 0008644 104.9075 255.3082 14.60326440877946
XIWANG-1 (HOPE-1)       
1 36122U 09072B   26094.29673168  .00000398  00000+0  11570-2 0  9990
2 36122 100.3961  49.3330 0008041  45.6665 314.5106 13.16438811783287
O/OREOS (USA 219)       
1 37224U 10062C   26093.85199841  .00005674  00000+0  54381-3 0  9997
2 37224  71.9703 248.6757 0015812 214.0698 145.9459 14.93434758105543
JUGNU                   
1 37839U 11058B   26094.05127480  .00000622  00000+0  18525-3 0  9996
2 37839  19.9619  38.8189 0018412 338.0893 108.9138 14.13753227748525
SRMSAT                  
1 37841U 11058D   26094.28010965  .00000496  00000+0  12556-3 0  9990
2 37841  19.9707 146.8101 0011924 110.2073 318.6980 14.11557455747360
STRAND-1                
1 39090U 13009E   26093.97733624  .00000593  00000+0  21376-3 0  9993
2 39090  98.3906 276.0425 0009856  93.1051 267.1264 14.37118190686408
ZACUBE-1 (TSHEPISOSAT)  
1 39417U 13066B   26093.87178787  .00009224  00000+0  71955-3 0  9999
2 39417  97.8146  55.8184 0044929 138.2329 222.2338 15.00579357669586
GOMX-1                  
1 39430U 13066Q   26094.29688122  .00002368  00000+0  36251-3 0  9992
2 39430  97.6537 299.4043 0128152 315.3293  43.7644 14.69201113659066
CUBEBUG-2 (LO-74)       
1 39440U 13066AA  26094.29759255  .00007490  00000+0  69927-3 0  9996
2 39440  97.8855  43.0224 0056556 272.6349  86.8397 14.93261828665966
FUNCUBE-1 (AO-73)       
1 39444U 13066AE  26094.18528427  .00016448  00000+0  10412-2 0  9990
2 39444  97.8232  64.1714 0039071  95.2943 265.2744 15.08416857668502
